NORAD_CAT_ID,OBJECT_NAME,OBJECT_TYPE,EPOCH,MEAN_MOTION,ECCENTRICITY,INCLINATION,RA_OF_ASC_NODE,ARG_OF_PERICENTER,MEAN_ANOMALY,BSTAR,MEAN_MOTION_DOT,MEAN_MOTION_DDOT,TLE_LINE0,TLE_LINE1,TLE_LINE2,SEMIMAJOR_AXIS,PERIOD,APOGEE,PERIGEE,DECAYED
52650.0,STARLINK-3891,PAYLOAD,2022-07-26 14:00:01,15.73229688,0.0002268,53.2137,79.5597,32.7284,199.4906,-0.00018133,-0.00026027,0.0,0 STARLINK-3891,1 52650U 22052BE  22207.58334491 -.00026027  00000-0 -18133-3 0  9997,2 52650  53.2137  79.5597 0002268  32.7284 199.4906 15.73229688  1300,6727.811,91.531,351.201,348.15,0.0
52650.0,STARLINK-3891,PAYLOAD,2022-07-26 22:00:00,15.73187252,0.0002562,53.2138,77.9121,33.625,287.551,0.00010147,0.00013636,0.0,0 STARLINK-3891,1 52650U 22052BE  22207.91667824  .00013636  00000-0  10147-3 0  9990,2 52650  53.2138  77.9121 0002562  33.6250 287.5510 15.73187252  1306,6727.932,91.534,351.52,348.0730000000001,0.0
52650.0,STARLINK-3891,PAYLOAD,2022-07-27 12:00:00,15.73199206,0.0002214,53.2139,75.0235,24.1167,2.7068,0.00035669,0.00049737,0.0,0 STARLINK-3891,1 52650U 22052BE  22208.50001157  .00049737  00000-0  35669-3 0  9994,2 52650  53.2139  75.0235 0002214  24.1167   2.7068 15.73199206 11979,6727.897,91.533,351.25199999999984,348.273,0.0
52650.0,STARLINK-3891,PAYLOAD,2022-07-27 14:00:01,15.73231095,0.0002218999999999,53.214,74.611,26.876,112.1748,-6.8359e-05,-0.00010218,0.0,0 STARLINK-3891,1 52650U 22052BE  22208.58334491 -.00010218  00000-0 -68359-4 0  9999,2 52650  53.2140  74.6110 0002219  26.8760 112.1748 15.73231095  1301,6727.807,91.531,351.164,348.17900000000014,0.0
52650.0,STARLINK-3891,PAYLOAD,2022-07-27 20:00:01,15.73238013,0.0002420999999999,53.2136,73.3753,26.397,89.39200000000002,-0.00045167,-0.00063646,0.0,0 STARLINK-3891,1 52650U 22052BE  22208.83334491 -.00063646  00000-0 -45167-3 0  9991,2 52650  53.2136  73.3753 0002421  26.3970  89.3920 15.73238013 12034,6727.7869999999975,91.531,351.281,348.023,0.0
52650.0,STARLINK-3891,PAYLOAD,2022-07-27 22:00:00,15.73201434,0.0002539,53.2136,72.9634,27.4952,200.5429,-4.0207e-06,-1.186e-05,0.0,0 STARLINK-3891,1 52650U 22052BE  22208.91667824 -.00001186  00000-0 -40207-5 0  9992,2 52650  53.2136  72.9634 0002539  27.4952 200.5429 15.73201434  1305,6727.891,91.533,351.464,348.048,0.0
52650.0,STARLINK-3891,PAYLOAD,2022-07-28 04:00:00,15.73207891,0.0002513,53.2129,71.7261,26.5614,178.1709,0.00019481,0.00026818,0.0,0 STARLINK-3891,1 52650U 22052BE  22209.16667824  .00026818  00000-0  19481-3 0  9995,2 52650  53.2129  71.7261 0002513  26.5614 178.1709 15.73207891 12088,6727.873000000001,91.533,351.42800000000005,348.047,0.0
52650.0,STARLINK-3891,PAYLOAD,2022-07-28 14:00:01,15.73223781,0.0002137,53.2133,69.66199999999999,27.623,18.3069,-0.000222,-0.00031695,0.0,0 STARLINK-3891,1 52650U 22052BE  22209.58334491 -.00031695  00000-0 -22200-3 0  9996,2 52650  53.2133  69.6620 0002137  27.6230  18.3069 15.73223781  1309,6727.8269999999975,91.532,351.13,348.255,0.0
52650.0,STARLINK-3891,PAYLOAD,2022-07-28 22:00:00,15.73209366,0.0002362,53.2138,68.014,22.171,112.7004,-8.876799999999999e-05,-0.00013067,0.0,0 STARLINK-3891,1 52650U 22052BE  22209.91667824 -.00013067  00000-0 -88768-4 0  9997,2 52650  53.2138  68.0140 0002362  22.1710 112.7004 15.73209366 12209,6727.868,91.533,351.3230000000001,348.144,0.0
52650.0,STARLINK-3891,PAYLOAD,2022-07-29 14:00:01,15.73170455,0.0002131999999999,53.2136,64.7131,19.8773,292.8173,0.00038779,0.00054088,0.0,0 STARLINK-3891,1 52650U 22052BE  22210.58334491  .00054088  00000-0  38779-3 0  9995,2 52650  53.2136  64.7131 0002132  19.8773 292.8173 15.73170455  1309,6727.979,91.535,351.279,348.41,0.0
52650.0,STARLINK-3891,PAYLOAD,2022-07-29 22:00:00,15.73188895,0.0002400999999999,53.2133,63.0656,19.4127,22.1884,0.00016868,0.00023108,0.0,0 STARLINK-3891,1 52650U 22052BE  22210.91667824  .00023108  00000-0  16868-3 0  9995,2 52650  53.2133  63.0656 0002401  19.4127  22.1884 15.73188895  1308,6727.927,91.534,351.407,348.176,0.0
52650.0,STARLINK-3891,PAYLOAD,2022-07-30 04:00:00,15.73233204,0.0002440999999999,53.2126,61.828,18.933,359.3517,-0.00031459,-0.00044608,0.0,0 STARLINK-3891,1 52650U 22052BE  22211.16667824 -.00044608  00000-0 -31459-3 0  9996,2 52650  53.2126  61.8280 0002441  18.9330 359.3517 15.73233204 12397,6727.801,91.531,351.30800000000005,348.023,0.0
52650.0,STARLINK-3891,PAYLOAD,2022-07-30 14:00:01,15.73167062,0.0002203,53.213,59.7642,27.9561,191.5166,0.00033377,0.00046418,0.0,0 STARLINK-3891,1 52650U 22052BE  22211.58334491  .00046418  00000-0  33377-3 0  9993,2 52650  53.2130  59.7642 0002203  27.9561 191.5166 15.73167062  1305,6727.989000000001,91.535,351.336,348.372,0.0
52650.0,STARLINK-3891,PAYLOAD,2022-07-30 22:00:00,15.73174945,0.0002497,53.2132,58.1166,25.6055,282.7672,0.00020176,0.00027761,0.0,0 STARLINK-3891,1 52650U 22052BE  22211.91667824  .00027761  00000-0  20176-3 0  9992,2 52650  53.2132  58.1166 0002497  25.6055 282.7672 15.73174945  1302,6727.967,91.535,351.51199999999994,348.152,0.0
52650.0,STARLINK-3891,PAYLOAD,2022-07-31 04:00:00,15.73215133,0.0002468,53.2132,56.8787,23.6192,261.4368,-2.3444e-05,-3.913e-05,0.0,0 STARLINK-3891,1 52650U 22052BE  22212.16667824 -.00003913  00000-0 -23444-4 0  9997,2 52650  53.2132  56.8787 0002468  23.6192 261.4368 15.73215133 12554,6727.852,91.532,351.37699999999984,348.057,0.0
52650.0,STARLINK-3891,PAYLOAD,2022-07-31 14:00:01,15.73243968,0.0002306,53.2136,54.8152,27.7321,98.5029,-7.4787e-05,-0.00011125,0.0,0 STARLINK-3891,1 52650U 22052BE  22212.58334491 -.00011125  00000-0 -74787-4 0  9994,2 52650  53.2136  54.8152 0002306  27.7321  98.5029 15.73243968  1303,6727.77,91.531,351.186,348.083,0.0
52650.0,STARLINK-3891,PAYLOAD,2022-07-31 22:00:00,15.73198001,0.0002555,53.2134,53.1674,21.9405,193.2846,6.2968e-05,8.224e-05,0.0,0 STARLINK-3891,1 52650U 22052BE  22212.91667824  .00008224  00000-0  62968-4 0  9992,2 52650  53.2134  53.1674 0002555  21.9405 193.2846 15.73198001  1304,6727.901,91.533,351.485,348.047,0.0
52650.0,STARLINK-3891,PAYLOAD,2022-08-01 12:00:00,15.732115300000002,0.0002173,53.2131,50.2781,21.5485,259.3031,0.00023897,0.00033068,0.0,0 STARLINK-3891,1 52650U 22052BE  22213.50001157  .00033068  00000-0  23897-3 0  9990,2 52650  53.2131  50.2781 0002173  21.5485 259.3031 15.73211530 12763,6727.861999999999,91.533,351.189,348.265,0.0
52650.0,STARLINK-3891,PAYLOAD,2022-08-01 14:00:01,15.73249809,0.0002205,53.2133,49.8661,21.3323,11.7467,-0.00031241,-0.00044334,0.0,0 STARLINK-3891,1 52650U 22052BE  22213.58334491 -.00044334  00000-0 -31241-3 0  9990,2 52650  53.2133  49.8661 0002205  21.3323  11.7467 15.73249809  1302,6727.753000000002,91.53,351.102,348.135,0.0
52650.0,STARLINK-3891,PAYLOAD,2022-08-01 20:00:01,15.73218806,0.0002359,53.2133,48.6304,17.3446,352.4774,-0.00031645,-0.00044839,0.0,0 STARLINK-3891,1 52650U 22052BE  22213.83334491 -.00044839  00000-0 -31645-3 0  9996,2 52650  53.2133  48.6304 0002359  17.3446 352.4774 15.73218806 12811,6727.842,91.532,351.2940000000001,348.119,0.0
52650.0,STARLINK-3891,PAYLOAD,2022-08-01 22:00:00,15.73176867,0.0002415,53.2135,48.2184,15.1936,106.8746,0.00027759,0.0003848,0.0,0 STARLINK-3891,1 52650U 22052BE  22213.91667824  .00038480  00000-0  27759-3 0  9998,2 52650  53.2135  48.2184 0002415  15.1936 106.8746 15.73176867  1300,6727.9609999999975,91.535,351.451,348.201,0.0
52650.0,STARLINK-3891,PAYLOAD,2022-08-02 04:00:00,15.73213315,0.0002403,53.2135,46.9801,15.1837,83.5614,-7.5345e-05,-0.00011189,0.0,0 STARLINK-3891,1 52650U 22052BE  22214.16667824 -.00011189  00000-0 -75345-4 0  9990,2 52650  53.2135  46.9801 0002403  15.1837  83.5614 15.73213315 12877,6727.857,91.532,351.339,348.106,0.0
52650.0,STARLINK-3891,PAYLOAD,2022-08-02 14:00:01,15.73225447,0.0002329,53.214,44.9171,22.3064,277.6161,-0.00043405,-0.00061171,0.0,0 STARLINK-3891,1 52650U 22052BE  22214.58334491 -.00061171  00000-0 -43405-3 0  9994,2 52650  53.2140  44.9171 0002329  22.3064 277.6161 15.73225447  1308,6727.823,91.532,351.255,348.121,0.0
52650.0,STARLINK-3891,PAYLOAD,2022-08-03 12:00:00,15.73211169,0.0002349,53.2138,40.3803,24.8004,69.6648,0.00026663,0.00036985,0.0,0 STARLINK-3891,1 52650U 22052BE  22215.50001157  .00036985  00000-0  26663-3 0  9997,2 52650  53.2138  40.3803 0002349  24.8004  69.6648 15.73211169 13083,6727.863,91.533,351.309,348.148,0.0
52650.0,STARLINK-3891,PAYLOAD,2022-08-03 14:00:01,15.73247532,0.0002331,53.2139,39.9684,23.6982,182.9956,-0.00026281,-0.00037422,0.0,0 STARLINK-3891,1 52650U 22052BE  22215.58334491 -.00037422  00000-0 -26281-3 0  9990,2 52650  53.2139  39.9684 0002331  23.6982 182.9956 15.73247532  1304,6727.76,91.53,351.1930000000001,348.056,0.0
52650.0,STARLINK-3891,PAYLOAD,2022-08-03 20:00:01,15.73224136,0.0002581,53.2139,38.7328,18.7137,164.7277,-0.00030077,-0.00042671,0.0,0 STARLINK-3891,1 52650U 22052BE  22215.83334491 -.00042671  00000-0 -30077-3 0  9998,2 52650  53.2139  38.7328 0002581  18.7137 164.7277 15.73224136 13133,6727.826,91.532,351.42800000000005,347.955,0.0
52650.0,STARLINK-3891,PAYLOAD,2022-08-03 22:00:01,15.7317759,0.0002605,53.214,38.3207,18.311,277.4473,0.00032156,0.0004471,0.0,0 STARLINK-3891,1 52650U 22052BE  22215.91668981  .00044710  00000-0  32156-3 0  9995,2 52650  53.2140  38.3207 0002605  18.3110 277.4473 15.73177590  1308,6727.959,91.534,351.577,348.071,0.0
52650.0,STARLINK-3891,PAYLOAD,2022-08-04 12:00:00,15.73221113,0.0002466,53.2145,35.4315,23.1466,338.1606,-0.00040006,-0.00056452,0.0,0 STARLINK-3891,1 52650U 22052BE  22216.50001157 -.00056452  00000-0 -40006-3 0  9998,2 52650  53.2145  35.4315 0002466  23.1466 338.1606 15.73221113 13233,6727.835,91.532,351.3590000000001,348.041,0.0
52650.0,STARLINK-3891,PAYLOAD,2022-08-04 14:00:01,15.73213549,0.0002536,53.2146,35.0197,23.7332,89.8102,-0.00041865,-0.0005901,0.0,0 STARLINK-3891,1 52650U 22052BE  22216.58334491 -.00059010  00000-0 -41865-3 0  9993,2 52650  53.2146  35.0197 0002536  23.7332  89.8102 15.73213549  1304,6727.857,91.532,351.42800000000005,348.015,0.0
